YOTSUBA-KULOVER         
1 65941U 98067XN  26057.18008428  .00142535  00000+0  89226-3 0  9995
2 65941  51.6225 116.7728 0006009   4.4210 355.6841 15.75841718 21682
BOTAN                   
1 65942U 98067XP  26057.15984530  .01060860  60716-3  16144-2 0  9993
2 65942  51.6123 110.5193 0009221  21.5497 338.5900 16.03861975 21768
E-KAGAKU-1              
1 65943U 98067XQ  26056.42143446  .00138198  00000+0  88187-3 0  9998
2 65943  51.6248 120.7218 0006150   9.7968 350.3151 15.75416927 21566
HRC MONOBLOCK CAMERA    
1 66052U 98067XR  26057.18069870  .00042829  00000+0  50609-3 0  9995
2 66052  51.6279 123.5582 0003034  45.2389 314.8850 15.60861243 20599
HTV-X1                  
1 66174U 25241A   26056.57355615  .00009568  00000+0  18600-3 0  9999
2 66174  51.6319 132.2502 0008347 132.4308 227.7387 15.48286925   511
SZ-21 MODULE            
1 66515U 25246C   26056.01670222  .00030552  00000+0  27555-3 0  9992
2 66515  41.4748 281.3118 0001473 289.6520  70.4162 15.67483837 16081
SHENZHOU-22             
1 66645U 25272A   26056.29872934  .00013605  00000+0  16666-3 0  9990
2 66645  41.4665 283.5238 0005654 192.4411 167.6289 15.60093757267645
SOYUZ-MS 28             
1 66664U 25275A   26056.83173488  .00009920  00000+0  19249-3 0  9997
2 66664  51.6320 130.9744 0008343 133.3805 226.7879 15.48292870554490
DUPLEX                  
1 66906U 98067XS  26056.76710022  .00031024  00000+0  45320-3 0  9997
2 66906  51.6287 129.0468 0001844  76.5226 283.5970 15.55361356 13270
ISS OBJECT XT           
1 66907U 98067XT  26057.16980492  .00109337  00000+0  10536-2 0  9996
2 66907  51.6260 124.2292 0004114  14.0579 346.0530 15.65665737 13374
ISS OBJECT XU           
1 66908U 98067XU  26057.16868837  .00110039  00000+0  10572-2 0  9996
2 66908  51.6255 124.2185 0004172  16.2402 343.8726 15.65737470 13379
SILVERSAT               
1 66909U 98067XV  26056.48675467  .00138005  00000+0  12223-2 0  9994
2 66909  51.6250 127.1648 0004851   9.1983 350.9101 15.67641974 13270
