CCSDS_OMM_VERS = 2.0
CREATION_DATE  = 
ORIGINATOR     = 

OBJECT_NAME    = YOTSUBA-KULOVER
OBJECT_ID      = 1998-067XN
CENTER_NAME    = EARTH
REF_FRAME      = TEME
TIME_SYSTEM    = UTC
MEAN_ELEMENT_THEORY = SGP/SGP4

EPOCH          = 2026-02-26T04:19:19.281792
MEAN_MOTION    = 15.75841718
ECCENTRICITY   = .0006009
INCLINATION    = 51.6225
RA_OF_ASC_NODE = 116.7728
ARG_OF_PERICENTER = 4.4210
MEAN_ANOMALY   = 355.6841

EPHEMERIS_TYPE = 0
CLASSIFICATION_TYPE = U
NORAD_CAT_ID   = 65941
ELEMENT_SET_NO = 999
REV_AT_EPOCH   = 2168
BSTAR          = .89226E-3
MEAN_MOTION_DOT = .142535E-2
MEAN_MOTION_DDOT = 0

CCSDS_OMM_VERS = 2.0
CREATION_DATE  = 
ORIGINATOR     = 

OBJECT_NAME    = BOTAN
OBJECT_ID      = 1998-067XP
CENTER_NAME    = EARTH
REF_FRAME      = TEME
TIME_SYSTEM    = UTC
MEAN_ELEMENT_THEORY = SGP/SGP4

EPOCH          = 2026-02-26T03:50:10.633920
MEAN_MOTION    = 16.03861975
ECCENTRICITY   = .0009221
INCLINATION    = 51.6123
RA_OF_ASC_NODE = 110.5193
ARG_OF_PERICENTER = 21.5497
MEAN_ANOMALY   = 338.5900

EPHEMERIS_TYPE = 0
CLASSIFICATION_TYPE = U
NORAD_CAT_ID   = 65942
ELEMENT_SET_NO = 999
REV_AT_EPOCH   = 2176
BSTAR          = .16144E-2
MEAN_MOTION_DOT = .106086E-1
MEAN_MOTION_DDOT = .60716E-3

CCSDS_OMM_VERS = 2.0
CREATION_DATE  = 
ORIGINATOR     = 

OBJECT_NAME    = E-KAGAKU-1
OBJECT_ID      = 1998-067XQ
CENTER_NAME    = EARTH
REF_FRAME      = TEME
TIME_SYSTEM    = UTC
MEAN_ELEMENT_THEORY = SGP/SGP4

EPOCH          = 2026-02-25T10:06:51.937344
MEAN_MOTION    = 15.75416927
ECCENTRICITY   = .00061504
INCLINATION    = 51.6248
RA_OF_ASC_NODE = 120.7218
ARG_OF_PERICENTER = 9.7968
MEAN_ANOMALY   = 350.3151

EPHEMERIS_TYPE = 0
CLASSIFICATION_TYPE = U
NORAD_CAT_ID   = 65943
ELEMENT_SET_NO = 999
REV_AT_EPOCH   = 2156
BSTAR          = .88186563E-3
MEAN_MOTION_DOT = .138198E-2
MEAN_MOTION_DDOT = 0

CCSDS_OMM_VERS = 2.0
CREATION_DATE  = 
ORIGINATOR     = 

OBJECT_NAME    = HRC MONOBLOCK CAMERA
OBJECT_ID      = 1998-067XR
CENTER_NAME    = EARTH
REF_FRAME      = TEME
TIME_SYSTEM    = UTC
MEAN_ELEMENT_THEORY = SGP/SGP4

EPOCH          = 2026-02-26T04:20:12.367680
MEAN_MOTION    = 15.60861243
ECCENTRICITY   = .0003034
INCLINATION    = 51.6279
RA_OF_ASC_NODE = 123.5582
ARG_OF_PERICENTER = 45.2389
MEAN_ANOMALY   = 314.8850

EPHEMERIS_TYPE = 0
CLASSIFICATION_TYPE = U
NORAD_CAT_ID   = 66052
ELEMENT_SET_NO = 999
REV_AT_EPOCH   = 2059
BSTAR          = .50609E-3
MEAN_MOTION_DOT = .42829E-3
MEAN_MOTION_DDOT = 0

CCSDS_OMM_VERS = 2.0
CREATION_DATE  = 
ORIGINATOR     = 

OBJECT_NAME    = HTV-X1
OBJECT_ID      = 2025-241A
CENTER_NAME    = EARTH
REF_FRAME      = TEME
TIME_SYSTEM    = UTC
MEAN_ELEMENT_THEORY = SGP/SGP4

EPOCH          = 2026-02-25T13:45:55.251360
MEAN_MOTION    = 15.48286925
ECCENTRICITY   = .00083472
INCLINATION    = 51.6319
RA_OF_ASC_NODE = 132.2502
ARG_OF_PERICENTER = 132.4308
MEAN_ANOMALY   = 227.7387

EPHEMERIS_TYPE = 0
CLASSIFICATION_TYPE = U
NORAD_CAT_ID   = 66174
ELEMENT_SET_NO = 999
REV_AT_EPOCH   = 51
BSTAR          = .18599678E-3
MEAN_MOTION_DOT = .9568E-4
MEAN_MOTION_DDOT = 0

CCSDS_OMM_VERS = 2.0
CREATION_DATE  = 
ORIGINATOR     = 

OBJECT_NAME    = SZ-21 MODULE
OBJECT_ID      = 2025-246C
CENTER_NAME    = EARTH
REF_FRAME      = TEME
TIME_SYSTEM    = UTC
MEAN_ELEMENT_THEORY = SGP/SGP4

EPOCH          = 2026-02-25T00:24:03.071808
MEAN_MOTION    = 15.67483837
ECCENTRICITY   = .00014733
INCLINATION    = 41.4748
RA_OF_ASC_NODE = 281.3118
ARG_OF_PERICENTER = 289.6520
MEAN_ANOMALY   = 70.4162

EPHEMERIS_TYPE = 0
CLASSIFICATION_TYPE = U
NORAD_CAT_ID   = 66515
ELEMENT_SET_NO = 999
REV_AT_EPOCH   = 1608
BSTAR          = .2755469E-3
MEAN_MOTION_DOT = .30552E-3
MEAN_MOTION_DDOT = 0

CCSDS_OMM_VERS = 2.0
CREATION_DATE  = 
ORIGINATOR     = 

OBJECT_NAME    = SHENZHOU-22
OBJECT_ID      = 2025-272A
CENTER_NAME    = EARTH
REF_FRAME      = TEME
TIME_SYSTEM    = UTC
MEAN_ELEMENT_THEORY = SGP/SGP4

EPOCH          = 2026-02-25T07:10:10.214976
MEAN_MOTION    = 15.60093757
ECCENTRICITY   = .00056542
INCLINATION    = 41.4665
RA_OF_ASC_NODE = 283.5238
ARG_OF_PERICENTER = 192.4411
MEAN_ANOMALY   = 167.6289

EPHEMERIS_TYPE = 0
CLASSIFICATION_TYPE = U
NORAD_CAT_ID   = 66645
ELEMENT_SET_NO = 999
REV_AT_EPOCH   = 26764
BSTAR          = .16665947E-3
MEAN_MOTION_DOT = .13605E-3
MEAN_MOTION_DDOT = 0

CCSDS_OMM_VERS = 2.0
CREATION_DATE  = 
ORIGINATOR     = 

OBJECT_NAME    = SOYUZ-MS 28
OBJECT_ID      = 2025-275A
CENTER_NAME    = EARTH
REF_FRAME      = TEME
TIME_SYSTEM    = UTC
MEAN_ELEMENT_THEORY = SGP/SGP4

EPOCH          = 2026-02-25T19:57:41.893632
MEAN_MOTION    = 15.48292870
ECCENTRICITY   = .0008343
INCLINATION    = 51.6320
RA_OF_ASC_NODE = 130.9744
ARG_OF_PERICENTER = 133.3805
MEAN_ANOMALY   = 226.7879

EPHEMERIS_TYPE = 0
CLASSIFICATION_TYPE = U
NORAD_CAT_ID   = 66664
ELEMENT_SET_NO = 999
REV_AT_EPOCH   = 55449
BSTAR          = .19249E-3
MEAN_MOTION_DOT = .992E-4
MEAN_MOTION_DDOT = 0

CCSDS_OMM_VERS = 2.0
CREATION_DATE  = 
ORIGINATOR     = 

OBJECT_NAME    = DUPLEX
OBJECT_ID      = 1998-067XS
CENTER_NAME    = EARTH
REF_FRAME      = TEME
TIME_SYSTEM    = UTC
MEAN_ELEMENT_THEORY = SGP/SGP4

EPOCH          = 2026-02-25T18:24:37.459008
MEAN_MOTION    = 15.55361356
ECCENTRICITY   = .0001844
INCLINATION    = 51.6287
RA_OF_ASC_NODE = 129.0468
ARG_OF_PERICENTER = 76.5226
MEAN_ANOMALY   = 283.5970

EPHEMERIS_TYPE = 0
CLASSIFICATION_TYPE = U
NORAD_CAT_ID   = 66906
ELEMENT_SET_NO = 999
REV_AT_EPOCH   = 1327
BSTAR          = .4532E-3
MEAN_MOTION_DOT = .31024E-3
MEAN_MOTION_DDOT = 0

CCSDS_OMM_VERS = 2.0
CREATION_DATE  = 
ORIGINATOR     = 

OBJECT_NAME    = ISS OBJECT XT
OBJECT_ID      = 1998-067XT
CENTER_NAME    = EARTH
REF_FRAME      = TEME
TIME_SYSTEM    = UTC
MEAN_ELEMENT_THEORY = SGP/SGP4

EPOCH          = 2026-02-26T04:04:31.145088
MEAN_MOTION    = 15.65665737
ECCENTRICITY   = .0004114
INCLINATION    = 51.6260
RA_OF_ASC_NODE = 124.2292
ARG_OF_PERICENTER = 14.0579
MEAN_ANOMALY   = 346.0530

EPHEMERIS_TYPE = 0
CLASSIFICATION_TYPE = U
NORAD_CAT_ID   = 66907
ELEMENT_SET_NO = 999
REV_AT_EPOCH   = 1337
BSTAR          = .10536E-2
MEAN_MOTION_DOT = .109337E-2
MEAN_MOTION_DDOT = 0

CCSDS_OMM_VERS = 2.0
CREATION_DATE  = 
ORIGINATOR     = 

OBJECT_NAME    = ISS OBJECT XU
OBJECT_ID      = 1998-067XU
CENTER_NAME    = EARTH
REF_FRAME      = TEME
TIME_SYSTEM    = UTC
MEAN_ELEMENT_THEORY = SGP/SGP4

EPOCH          = 2026-02-26T04:02:54.675168
MEAN_MOTION    = 15.65737470
ECCENTRICITY   = .0004172
INCLINATION    = 51.6255
RA_OF_ASC_NODE = 124.2185
ARG_OF_PERICENTER = 16.2402
MEAN_ANOMALY   = 343.8726

EPHEMERIS_TYPE = 0
CLASSIFICATION_TYPE = U
NORAD_CAT_ID   = 66908
ELEMENT_SET_NO = 999
REV_AT_EPOCH   = 1337
BSTAR          = .10572E-2
MEAN_MOTION_DOT = .110039E-2
MEAN_MOTION_DDOT = 0

CCSDS_OMM_VERS = 2.0
CREATION_DATE  = 
ORIGINATOR     = 

OBJECT_NAME    = SILVERSAT
OBJECT_ID      = 1998-067XV
CENTER_NAME    = EARTH
REF_FRAME      = TEME
TIME_SYSTEM    = UTC
MEAN_ELEMENT_THEORY = SGP/SGP4

EPOCH          = 2026-02-25T11:40:55.603488
MEAN_MOTION    = 15.67641974
ECCENTRICITY   = .0004851
INCLINATION    = 51.6250
RA_OF_ASC_NODE = 127.1648
ARG_OF_PERICENTER = 9.1983
MEAN_ANOMALY   = 350.9101

EPHEMERIS_TYPE = 0
CLASSIFICATION_TYPE = U
NORAD_CAT_ID   = 66909
ELEMENT_SET_NO = 999
REV_AT_EPOCH   = 1327
BSTAR          = .12222508E-2
MEAN_MOTION_DOT = .138005E-2
MEAN_MOTION_DDOT = 0

